STARLINK-34129          
1 64138U 25111R   26068.44603653  .00026847  00000+0  98116-3 0  9999
2 64138  43.0005  79.4557 0001467 268.7528  91.3156 15.27593456 45471
2025-313BC              
1 67298U 25313BC  26068.18968176  .00075331  00000+0  26410-2 0  9997
2 67298  97.3985 144.8110 0008478 328.9209  31.1528 15.29126358  7890
